[{"OBJECT_NAME":"GAOFEN-12 01","OBJECT_ID":"2019-082A","EPOCH":"2026-03-09T23:49:51.973824","MEAN_MOTION":14.80365933,"ECCENTRICITY":0.00017748,"INCLINATION":97.8143,"RA_OF_ASC_NODE":77.9831,"ARG_OF_PERICENTER":56.9861,"MEAN_ANOMALY":303.1522,"EPHEMERIS_TYPE":0,"CLASSIFICATION_TYPE":"U","NORAD_CAT_ID":44819,"ELEMENT_SET_NO":999,"REV_AT_EPOCH":33941,"BSTAR":9.6158816e-5,"MEAN_MOTION_DOT":6.83e-6,"MEAN_MOTION_DDOT":0},{"OBJECT_NAME":"CZ-6A DEB","OBJECT_ID":"2024-140EN","EPOCH":"2026-03-09T13:16:26.512032","MEAN_MOTION":14.62366199,"ECCENTRICITY":0.01061152,"INCLINATION":89.0205,"RA_OF_ASC_NODE":283.5219,"ARG_OF_PERICENTER":223.1419,"MEAN_ANOMALY":136.1446,"EPHEMERIS_TYPE":0,"CLASSIFICATION_TYPE":"U","NORAD_CAT_ID":60763,"ELEMENT_SET_NO":999,"REV_AT_EPOCH":8320,"BSTAR":0.00091380708,"MEAN_MOTION_DOT":5.024e-5,"MEAN_MOTION_DDOT":0}]
